IRIDIUM 26              
1 24903U 97043A   25151.82381953  .00000447  00000+0  14394-3 0  9992
2 24903  86.3942 117.4965 0002424  91.0575 269.0900 14.37132593454393
IRIDIUM 22              
1 24907U 97043E   25151.67044487  .00000373  00000+0  12175-3 0  9990
2 24907  86.3947 121.0857 0002368  87.2906 272.8561 14.35946966454407
DUMMY MASS 1            
1 24925U 97048A   25151.72804028  .00000406  00000+0  42192-4 0  9996
2 24925  86.3340 142.9391 0006046 183.5154 176.6029 14.86973300502683
DUMMY MASS 2            
1 24926U 97048B   25151.68744155  .00000400  00000+0  41807-4 0  9992
2 24926  86.3342 144.5615 0006290 198.6327 161.4668 14.86725589502453
IRIDIUM 29              
1 24944U 97051A   25151.69921378  .00000427  00000+0  13893-3 0  9993
2 24944  86.3959 150.8120 0002230  84.9210 275.2242 14.36453942450906
IRIDIUM 33              
1 24946U 97051C   25151.94190966  .00000281  00000+0  91898-4 0  9994
2 24946  86.3874 149.9690 0009657 122.5313 237.6817 14.34883014450419
IRIDIUM 28              
1 24948U 97051E   25151.96198881  .00000354  00000+0  11185-3 0  9993
2 24948  86.3962 148.2279 0002651  97.2303 262.9196 14.37375211451519
IRIDIUM 36              
1 24967U 97056C   25151.78864024  .00000375  00000+0  11855-3 0  9995
2 24967  86.3993 179.8822 0002583  89.7096 270.4397 14.37597075449863
